{
  "norad_id": 67267,
  "name": "2025-313V",
  "history": [
    {
      "epoch": "2026-03-28T20:49:05.012832Z",
      "apogee_km": 507.54116581796916,
      "perigee_km": 490.39667829639984,
      "latitude_deg": -3.7451130820362837e-06,
      "longitude_deg": 25.28261046201327,
      "height_km": 498.88174711936153,
      "semi_major_axis_km": 6877.105922057184,
      "eccentricity": 0.00124649,
      "inclination_deg": 97.3988,
      "raan_deg": 163.8352,
      "arg_perigee_deg": 291.833,
      "mean_anomaly_deg": 68.158,
      "mean_motion_rev_day": 15.22278774
    },
    {
      "epoch": "2026-03-29T04:42:21.542688Z",
      "apogee_km": 507.49228504150506,
      "perigee_km": 490.3642662659622,
      "latitude_deg": -2.383226369320258e-05,
      "longitude_deg": -93.03680686317817,
      "height_km": 499.0157179662814,
      "semi_major_axis_km": 6877.065275653734,
      "eccentricity": 0.0012453,
      "inclination_deg": 97.3988,
      "raan_deg": 164.1586,
      "arg_perigee_deg": 290.6021,
      "mean_anomaly_deg": 69.3879,
      "mean_motion_rev_day": 15.2229227
    },
    {
      "epoch": "2026-03-30T04:22:10.080768Z",
      "apogee_km": 507.41560757035313,
      "perigee_km": 490.2754163575346,
      "latitude_deg": -4.802802154655107e-05,
      "longitude_deg": -87.99036982612103,
      "height_km": 499.49955082665224,
      "semi_major_axis_km": 6876.982511963944,
      "eccentricity": 0.0012462,
      "inclination_deg": 97.3986,
      "raan_deg": 165.1291,
      "arg_perigee_deg": 286.5904,
      "mean_anomaly_deg": 73.3963,
      "mean_motion_rev_day": 15.22319751
    },
    {
      "epoch": "2026-03-30T05:56:49.253856Z",
      "apogee_km": 507.40555276885516,
      "perigee_km": 490.27211763351806,
      "latitude_deg": 8.368954595246744e-05,
      "longitude_deg": -111.65379555722035,
      "height_km": 499.5316910416134,
      "semi_major_axis_km": 6876.975835201186,
      "eccentricity": 0.00124571,
      "inclination_deg": 97.3986,
      "raan_deg": 165.1937,
      "arg_perigee_deg": 286.3265,
      "mean_anomaly_deg": 73.6602,
      "mean_motion_rev_day": 15.22321968
    },
    {
      "epoch": "2026-03-30T13:50:05.034624Z",
      "apogee_km": 507.4005441640147,
      "perigee_km": 490.216707511996,
      "latitude_deg": 4.338763417418034e-05,
      "longitude_deg": 130.03011980540015,
      "height_km": 499.6778913681209,
      "semi_major_axis_km": 6876.945625838005,
      "eccentricity": 0.00124938,
      "inclination_deg": 97.3986,
      "raan_deg": 165.5173,
      "arg_perigee_deg": 285.0557,
      "mean_anomaly_deg": 74.9297,
      "mean_motion_rev_day": 15.22331999
    }
  ]
}